1 08820U 76039A   03178.91752324  .00000016  00000-0  10000-3 0  9536
2 08820 109.8046 185.2730 0044628 299.1559  60.4662  6.38664475377749
